{
    "links": {
        "self": "http://www.neowsapp.com/rest/v1/neo/3670038?api_key=iIulBulltgU6a56xZRHN4H3l9WmuAYTsLGpBGhQ2"
    },
    "id": "3670038",
    "neo_reference_id": "3670038",
    "name": "(2014 HX176)",
    "designation": "2014 HX176",
    "nasa_jpl_url": "http://ssd.jpl.nasa.gov/sbdb.cgi?sstr=3670038",
    "absolute_magnitude_h": 24.5,
    "estimated_diameter": {
        "kilometers": {
            "estimated_diameter_min": 0.0334622374,
            "estimated_diameter_max": 0.0748238376
        },
        "meters": {
            "estimated_diameter_min": 33.4622374455,
            "estimated_diameter_max": 74.8238376074
        },
        "miles": {
            "estimated_diameter_min": 0.0207924639,
            "estimated_diameter_max": 0.0464933628
        },
        "feet": {
            "estimated_diameter_min": 109.7842471007,
            "estimated_diameter_max": 245.4850393757
        }
    },
    "is_potentially_hazardous_asteroid": false,
    "close_approach_data": [
        {
            "close_approach_date": "2014-04-15",
            "close_approach_date_full": "2014-Apr-15 07:05",
            "epoch_date_close_approach": 1397545500000,
            "relative_velocity": {
                "kilometers_per_second": "6.8349788006",
                "kilometers_per_hour": "24605.923681999",
                "miles_per_hour": "15289.1640789621"
            },
            "miss_distance": {
                "astronomical": "0.0404483478",
                "lunar": "15.7344072942",
                "kilometers": "6050986.675899186",
                "miles": "3759908.7711173268"
            },
            "orbiting_body": "Earth"
        },
        {
            "close_approach_date": "2017-02-07",
            "close_approach_date_full": "2017-Feb-07 00:37",
            "epoch_date_close_approach": 1486427820000,
            "relative_velocity": {
                "kilometers_per_second": "19.7292527403",
                "kilometers_per_hour": "71025.3098651185",
                "miles_per_hour": "44132.365454801"
            },
            "miss_distance": {
                "astronomical": "0.4468610412",
                "lunar": "173.8289450268",
                "kilometers": "66849459.949502244",
                "miles": "41538328.2547452072"
            },
            "orbiting_body": "Earth"
        },
        {
            "close_approach_date": "2081-05-21",
            "close_approach_date_full": "2081-May-21 00:11",
            "epoch_date_close_approach": 3515011860000,
            "relative_velocity": {
                "kilometers_per_second": "16.7556263752",
                "kilometers_per_hour": "60320.2549507153",
                "miles_per_hour": "37480.660638682"
            },
            "miss_distance": {
                "astronomical": "0.3638083653",
                "lunar": "141.5214541017",
                "kilometers": "54424956.537061911",
                "miles": "33818099.8260039318"
            },
            "orbiting_body": "Earth"
        },
        {
            "close_approach_date": "2084-03-19",
            "close_approach_date_full": "2084-Mar-19 12:45",
            "epoch_date_close_approach": 3604308300000,
            "relative_velocity": {
                "kilometers_per_second": "6.6502807221",
                "kilometers_per_hour": "23941.0105995666",
                "miles_per_hour": "14876.0129472696"
            },
            "miss_distance": {
                "astronomical": "0.0619285528",
                "lunar": "24.0902070392",
                "kilometers": "9264379.591062536",
                "miles": "5756618.5399375568"
            },
            "orbiting_body": "Earth"
        }
    ],
    "orbital_data": {
        "orbit_id": "10",
        "orbit_determination_date": "2017-04-06 08:41:18",
        "first_observation_date": "2014-04-30",
        "last_observation_date": "2014-05-23",
        "data_arc_in_days": 23,
        "observations_used": 26,
        "orbit_uncertainty": "6",
        "minimum_orbit_intersection": ".0271029",
        "jupiter_tisserand_invariant": "3.636",
        "epoch_osculation": "2459000.5",
        "eccentricity": ".4969391647072547",
        "semi_major_axis": "2.040405424619654",
        "inclination": "2.536804517119935",
        "ascending_node_longitude": "193.1530257019454",
        "orbital_period": "1064.567322397566",
        "perihelion_distance": "1.026448057245012",
        "perihelion_argument": "356.3219535771168",
        "aphelion_distance": "3.054362791994296",
        "perihelion_time": "2458879.198280884291",
        "mean_anomaly": "41.02006323405367",
        "mean_motion": ".3381655555509873",
        "equinox": "J2000",
        "orbit_class": {
            "orbit_class_type": "AMO",
            "orbit_class_description": "Near-Earth asteroid orbits similar to that of 1221 Amor",
            "orbit_class_range": "1.017 AU < q (perihelion) < 1.3 AU"
        }
    },
    "is_sentry_object": false
}